RS27S UTMN-2
1 57203U 23091AP  26169.82426919  .00009964  00000+0  32374-3 0  9996
2 57203  97.5083 237.0682 0009170  78.8611 281.3661 15.32084540164793
METEOR-M2-4
1 59051U 24039A   26169.87164233  .00000003  00000+0  20866-4 0  9994
2 59051  98.7017 129.1485 0007381 156.3184 203.8335 14.22429672119500
SONATE-2
1 59112U 24043Q   26169.67901345  .00030619  00000+0  39665-3 0  9990
2 59112  97.5539 320.1662 0007133 190.3549 169.7561 15.58811253128121
GRBBeta
1 60237U 24128C   26169.41466747  .00002322  00000+0  16766-3 0  9995
2 60237  61.9881 211.9597 0040487 134.9163 225.5227 15.06645417106457
Curium One
1 60242U 24128H   26169.36009123  .00004964  00000+0  29109-3 0  9995
2 60242  61.9767 201.6210 0039633 131.0641 229.3890 15.12522411106637
ROBUSTA-3A
1 60243U 24128J   26169.78852314  .00004083  00000+0  24711-3 0  9996
2 60243  61.9845 202.5810 0041220 128.2234 232.2584 15.11688886106666
CatSat
1 60246U 24125J   26169.10272227  .00049804  00000+0  63775-3 0  9994
2 60246  97.2078  21.6150 0022362 176.0493 184.0944 15.58740840107531
ARTIC WX
1 60543U 24149CD  26169.76563348  .00000587  00000+0  66748-4 0  9998
2 60543  97.6804 240.1860 0003583  99.7538 260.4084 14.89784390 99538
HYPERVIEW-1G (RS66S)
1 61772U 24199AP  26169.52300580  .00119986  00000+0  76128-3 0  9995
2 61772  97.2864  49.3091 0004092 213.0172 147.0839 15.76152791134888
AO-123
1 61781U 24199AY  26169.85915098  .00006296  00000+0  18330-3 0  9997
2 61781  97.2994  38.5146 0012169 307.4098  52.6038 15.35695532134187
SAMSAT-IONOSPHERE
1 61784U 24199BB  26169.85815500  .00034423  00000+0  46376-3 0  9991
2 61784  97.2936  45.7847 0005933 267.6417  92.4159 15.57746683137825
LASARsat
1 62391U 24247Q   26167.97623210  .00026221  00000+0  52389-3 0  9994
2 62391  44.9742 263.4006 0008180 330.0323  30.0098 15.46364825 83280
CROCUBE
1 62394U 24247T   26168.68403664  .00028750  00000+0  53655-3 0  9991
2 62394  44.9716 256.7472 0007967 338.3414  21.7139 15.48292245 83427
JINJUSat 1B
1 63210U 25052A   26169.64673337  .00013316  00000+0  41270-3 0  9999
2 63210  97.4001  66.4035 0005470  87.7110 272.4759 15.33541633 70321
NUSHSAT 1
1 63211U 25052B   26169.68808097  .00016044  00000+0  45914-3 0  9997
2 63211  97.3978  67.0160 0005192  90.4522 269.7316 15.36020272 70376
TEVEL2-4
1 63213U 25052D   26169.16026822  .00013925  00000+0  41679-3 0  9999
2 63213  97.3899  65.5534 0004892 101.1057 259.0736 15.34638877 70267
TEVEL2-5
1 63214U 25052E   26169.24609025  .00014381  00000+0  43269-3 0  9995
2 63214  97.3896  65.5869 0004830 102.4501 257.7282 15.34468179 70274
TEVEL2-6
1 63215U 25052F   26169.64972185  .00014665  00000+0  44149-3 0  9993
2 63215  97.3902  65.9753 0004754 102.3896 257.7879 15.34444200 70338
TEVEL2-1
1 63217U 25052H   26167.98311732  .00015254  00000+0  46759-3 0  9999
2 63217  97.3878  63.9315 0004776 114.0246 246.1497 15.33862790 70062
TEVEL2-3
1 63218U 25052J   26169.21721413  .00013636  00000+0  41717-3 0  9990
2 63218  97.3876  65.1876 0004784 111.6864 248.4888 15.33951855 70256
TEVEL2-2
1 63219U 25052K   26169.61432708  .00013531  00000+0  41444-3 0  9992
2 63219  97.3876  65.5651 0004772 111.0401 249.1353 15.33915374 70318
TEVEL2-9
1 63237U 25052AD  26169.20167564  .00012483  00000+0  40696-3 0  9995
2 63237  97.3936  64.5254 0007883 127.9534 232.2421 15.31922489 70189
TEVEL2-7
1 63238U 25052AE  26169.70010282  .00011996  00000+0  39463-3 0  9993
2 63238  97.3937  64.9383 0008007 127.0437 233.1538 15.31638838 70259
TEVEL2-8
1 63239U 25052AF  26169.64303769  .00012666  00000+0  41670-3 0  9990
2 63239  97.3938  64.8582 0007990 127.5686 232.6282 15.31622115 70242
PARUS-T2
1 64560U 25135AJ  26169.27722360  .00003815  00000+0  34846-3 0  9994
2 64560  97.7749 283.9518 0000990 108.0079 252.1249 14.95636142 54077
Geoscan-1
1 64880U 25155E   26169.81825183  .00008365  00000+0  28357-3 0  9993
2 64880  97.4557 138.5257 0008488 156.9214 203.2410 15.30773323 81029
239Alferov
1 64881U 25155F   26169.85083568  .00011270  00000+0  35582-3 0  9998
2 64881  97.4558 139.1255 0008222 153.8262 206.3397 15.32976230 81067
Geoscan-2
1 64890U 25155Q   26169.81164753  .00008624  00000+0  28984-3 0  9997
2 64890  97.4556 138.6723 0008284 144.6151 215.5641 15.31044892 81032
Geoscan-4
1 64892U 25155S   26169.88879668  .00010700  00000+0  33311-3 0  9992
2 64892  97.4554 139.3509 0007042 156.9135 203.2425 15.33449245 81083
Geoscan-3
1 64893U 25155T   26169.88735008  .00013201  00000+0  38524-3 0  9992
2 64893  97.4542 139.7840 0006994 155.2602 204.8978 15.35442292 81110
SPIRONE
1 66657U 25274H   26169.72887493  .00001505  00000+0  14807-3 0  9995
2 66657  97.7480  98.9980 0012531  16.8581 343.3053 14.93549213 30455
K-HERO
1 66660U 25274L   26169.73303941  .00001535  00000+0  14927-3 0  9997
2 66660  97.7486  99.1641 0014491  19.9270 340.2513 14.93966374 30467
SNUGLITE-III DURI
1 66661U 25274M   26169.78774696  .00001045  00000+0  10323-3 0  9994
2 66661  97.7484  99.2388 0015153  20.4014 339.7808 14.94005704 30477
GALAPAGOS
1 67279U 25313AH  26169.78401515  .00004972  00000+0  21489-3 0  9998
2 67279  97.3920 244.3691 0013783   4.8377 355.2991 15.22846208 26193
Lobachevsky
1 67282U 25313AL  26169.79268791  .00003928  00000+0  16959-3 0  9996
2 67282  97.3924 244.4992 0010326   2.6111 357.5178 15.23051548 26208
SAKHACUBE-CHOLBON
1 67290U 25313AU  26169.73515258  .00007476  00000+0  30292-3 0  9990
2 67290  97.3928 244.7506 0008685 359.9082   0.2153 15.24911323 26218
RS95S (QMR-KWT-2)
1 67291U 25313AV  26169.19751839  .00009779  00000+0  37905-3 0  9994
2 67291  97.3928 244.3972 0008079 359.4201   0.7027 15.26314664 26141
KNACKSAT-2
1 67683U 98067XZ  26168.60673955  .00040994  00000+0  49993-3 0  9996
2 67683  51.6314 292.3670 0009088 217.1010 142.9356 15.60014370 20344
Ten-Koh2
1 68261U 25241B   26166.70419506  .00005304  00000+0  23027-3 0  9998
2 68261  51.6697 326.6857 0006067 137.6687 222.4761 15.23889978 14686
JACK-002
1 68417U 26067B   26169.67616620  .00005002  00000+0  23946-3 0  9998
2 68417  97.4572 128.2483 0000035 103.4593 256.6646 15.19408886 12179
DISCO 2
1 68431U 26067R   26169.63177850  .00006992  00000+0  33644-3 0  9992
2 68431  97.4605 128.1928 0002651  41.0298 319.1135 15.19091137 12164
HADES-SA (SpinnyONE)
1 68446U 26067AG  26169.80272640  .00013380  00000+0  63937-3 0  9997
2 68446  97.4411 128.0749 0009437  78.0016 282.2276 15.19104540 12172
PARUS-6U1
1 68456U 26067AS  26169.77097646  .00004719  00000+0  23842-3 0  9992
2 68456  97.4555 128.1099 0007382  67.6408 292.5608 15.17529812 12171
SAL-E
1 68458U 26067AU  26169.63430590  .00006585  00000+0  32902-3 0  9998
2 68458  97.4483 127.9107 0007863  75.3508 284.8597 15.17772396 12157
FSI-SAT 2
1 68792U 26088A   26169.68028264  .00003518  00000+0  23941-3 0  9994
2 68792  97.5080 318.9017 0016014 102.0358 258.2666 15.06848218  8515
OrigamiSat 2
1 68795U 26088D   26168.95805529  .00010866  00000+0  69331-3 0  9990
2 68795  97.5079 318.3357 0016131  78.7559 281.5481 15.08753974  8418
ARICA 2
1 68796U 26088E   26169.68717231  .00003775  00000+0  24572-3 0  9993
2 68796  97.5069 319.0380 0017048  75.5512 284.7607 15.08439728  8529
WASEDA-SAT-ZERO-II
1 68797U 26088F   26169.68267289  .00004926  00000+0  31745-3 0  9996
2 68797  97.5069 319.0428 0016843  75.5070 284.8026 15.08658562  8529
MANGARO-II-Piscus
1 68798U 26088G   26168.94346623  .00003188  00000+0  20586-3 0  9995
2 68798  97.5078 318.3492 0020619  80.1236 280.2320 15.08791826  8411
Delfi-N3xt
1 39428U 13066N   26169.78419961  .00004210  00000-0  36932-3 0  9994
2 39428  97.8334  90.0939 0073786 200.1735 159.6566 14.95089829674865
IO-86
1 40931U          25360.30710720  .00000000  00000-0  12800-3 0    00
2 40931   6.0006 332.5373 0012733 338.8432   8.1437 14.79075515    01
LILIUM-4
1 71922C 26067AC  26089.50133053 -.00014632  00000 0 -74472-3 0    04
2 71922  97.4497  49.1617 0004341   5.9603 355.7042 15.16896692    16
TRANSIT 5B-5
1 00965U 64083D   26140.22132175  .00000058  00000-0  68520-4 0  9995
2 00965  90.0785 202.8139 0041495   2.6876  57.4259 13.57009955 39826
PARUS-T1
1 98707U 25009N   25063.20000000  .00000000  00000-0  00000-0 0    08
2 98707  97.4430 144.9801 0003811 149.1702 136.3402 15.16239457    06
T.MicroSat-1
1 98515U 25276Y   25347.12519372 +.00009703 +00000+0 +47621-3 0 00218
2 98515  97.4377  58.8963 0002080  99.7173 260.4296 15.18293117002180
ARICA-2
1 98329U 27001A   26113.71443610  .00000000  00000-0  29916-3 0    03
2 98329  97.5133 264.2063 0010953 206.3608 281.8662 15.08387874    01
CORIOLIS
1 27640U 03001A   26170.59299289  .00000066  00000+0  51487-4 0  9992
2 27640  98.7125 177.4411 0013512 201.5448 158.5161 14.19945392214566
